start=new Date('2022-11-03T00:00:00.000Z').valueOf();
sats=[{"GP_ID":"216789748","SITE":"AFETR","BSTAR":"0.00031054000000","ECCENTRICITY":"0.00015160","TLE_LINE1":"1 48002U 21024AB  22306.85637983  .00004347  00000-0  31054-3 0  9999","DECAY_DATE":null,"PERIOD":"95.592","MEAN_MOTION":"15.06404034","RA_OF_ASC_NODE":"351.4578","MEAN_MOTION_DOT":"0.00004347","REV_AT_EPOCH":"9123","ELEMENT_SET_NO":"999","FILE":"3643025","REF_FRAME":"TEME","CENTER_NAME":"EARTH","CLASSIFICATION_TYPE":"U","INCLINATION":"53.0562","MEAN_MOTION_DDOT":"0.0000000000000","NORAD_CAT_ID":"48002","OBJECT_NAME":"STARLINK-2265","RCS_SIZE":"LARGE","PERIAPSIS":"546.151","EPHEMERIS_TYPE":"0","MEAN_ELEMENT_THEORY":"SGP4","SEMIMAJOR_AXIS":"6925.336","OBJECT_TYPE":"PAYLOAD","MEAN_ANOMALY":"299.1858","OBJECT_ID":"2021-024AB","EPOCH":"2022-11-02T20:33:11.217312","TLE_LINE2":"2 48002  53.0562 351.4578 0001516  60.9283 299.1858 15.06404034 91235","ARG_OF_PERICENTER":"60.9283","LAUNCH_DATE":"2021-03-24","TIME_SYSTEM":"UTC","APOAPSIS":"548.251","COUNTRY_CODE":"US"},{"BSTAR":"0.00005848800000","ECCENTRICITY":"0.00014000","TLE_LINE1":"1 48003U 21024AC  22306.64486132  .00000590  00000-0  58488-4 0  9992","SITE":"AFETR","GP_ID":"216789499","PERIOD":"95.592","MEAN_MOTION":"15.06395266","DECAY_DATE":null,"ELEMENT_SET_NO":"999","REV_AT_EPOCH":"9015","RA_OF_ASC_NODE":"67.0905","MEAN_MOTION_DOT":"0.00000590","FILE":"3643025","CLASSIFICATION_TYPE":"U","INCLINATION":"53.0552","MEAN_MOTION_DDOT":"0.0000000000000","REF_FRAME":"TEME","CENTER_NAME":"EARTH","EPHEMERIS_TYPE":"0","MEAN_ELEMENT_THEORY":"SGP4","RCS_SIZE":"LARGE","PERIAPSIS":"546.259","OBJECT_NAME":"STARLINK-2263","NORAD_CAT_ID":"48003","EPOCH":"2022-11-02T15:28:36.018048","MEAN_ANOMALY":"270.7440","OBJECT_ID":"2021-024AC","OBJECT_TYPE":"PAYLOAD","SEMIMAJOR_AXIS":"6925.363","APOAPSIS":"548.198","COUNTRY_CODE":"US","TIME_SYSTEM":"UTC","LAUNCH_DATE":"2021-03-24","TLE_LINE2":"2 48003  53.0552  67.0905 0001400  89.3710 270.7440 15.06395266 90159","ARG_OF_PERICENTER":"89.3710"},{"TIME_SYSTEM":"UTC","LAUNCH_DATE":"2021-03-24","TLE_LINE2":"2 48005  53.0564  37.4760 0001243  90.1986 269.9146 15.06389073 90101","ARG_OF_PERICENTER":"90.1986","APOAPSIS":"548.108","COUNTRY_CODE":"US","OBJECT_TYPE":"PAYLOAD","SEMIMAJOR_AXIS":"6925.382","EPOCH":"2022-11-02T13:19:53.732928","MEAN_ANOMALY":"269.9146","OBJECT_ID":"2021-024AE","OBJECT_NAME":"STARLINK-2254","NORAD_CAT_ID":"48005","EPHEMERIS_TYPE":"0","MEAN_ELEMENT_THEORY":"SGP4","PERIAPSIS":"546.386","RCS_SIZE":"LARGE","REF_FRAME":"TEME","CENTER_NAME":"EARTH","CLASSIFICATION_TYPE":"U","MEAN_MOTION_DDOT":"0.0000000000000","INCLINATION":"53.0564","FILE":"3641878","MEAN_MOTION_DOT":"-0.00000114","RA_OF_ASC_NODE":"37.4760","ELEMENT_SET_NO":"999","REV_AT_EPOCH":"9010","DECAY_DATE":null,"PERIOD":"95.593","MEAN_MOTION":"15.06389073","GP_ID":"216719091","BSTAR":"0.00001126700000","ECCENTRICITY":"0.00012430","TLE_LINE1":"1 48005U 21024AE  22306.55548302 -.00000114  00000-0  11267-4 0  9999","SITE":"AFETR"},{"INCLINATION":"53.0548","MEAN_MOTION_DDOT":"0.0000000000000","CLASSIFICATION_TYPE":"U","CENTER_NAME":"EARTH","REF_FRAME":"TEME","PERIAPSIS":"546.001","RCS_SIZE":"LARGE","MEAN_ELEMENT_THEORY":"SGP4","EPHEMERIS_TYPE":"0","NORAD_CAT_ID":"48008","OBJECT_NAME":"STARLINK-2271","OBJECT_ID":"2021-024AH","MEAN_ANOMALY":"312.7551","EPOCH":"2022-11-02T20:13:11.690688","SEMIMAJOR_AXIS":"6925.358","OBJECT_TYPE":"PAYLOAD","COUNTRY_CODE":"US","APOAPSIS":"548.445","TLE_LINE2":"2 48008  53.0548 331.2041 0001764  47.3587 312.7551 15.06396927 91522","ARG_OF_PERICENTER":"47.3587","LAUNCH_DATE":"2021-03-24","TIME_SYSTEM":"UTC","SITE":"AFETR","TLE_LINE1":"1 48008U 21024AH  22306.84249642 -.00000022  00000-0  17430-4 0  9995","ECCENTRICITY":"0.00017640","BSTAR":"0.00001743000000","GP_ID":"216788996","MEAN_MOTION":"15.06396927","PERIOD":"95.592","DECAY_DATE":null,"REV_AT_EPOCH":"9152","ELEMENT_SET_NO":"999","MEAN_MOTION_DOT":"-0.00000022","RA_OF_ASC_NODE":"331.2041","FILE":"3643025"},{"MEAN_MOTION":"15.06397810","PERIOD":"95.592","DECAY_DATE":null,"SITE":"AFETR","TLE_LINE1":"1 48009U 21024AJ  22306.56929588  .00000627  00000-0  60983-4 0  9990","ECCENTRICITY":"0.00014150","BSTAR":"0.00006098300000","GP_ID":"216752387","FILE":"3642416","REV_AT_EPOCH":"9043","ELEMENT_SET_NO":"999","RA_OF_ASC_NODE":"47.4299","MEAN_MOTION_DOT":"0.00000627","RCS_SIZE":"LARGE","PERIAPSIS":"546.240","MEAN_ELEMENT_THEORY":"SGP4","EPHEMERIS_TYPE":"0","NORAD_CAT_ID":"48009","OBJECT_NAME":"STARLINK-2153","MEAN_MOTION_DDOT":"0.0000000000000","INCLINATION":"53.0561","CLASSIFICATION_TYPE":"U","CENTER_NAME":"EARTH","REF_FRAME":"TEME","COUNTRY_CODE":"US","APOAPSIS":"548.200","TLE_LINE2":"2 48009  53.0561  47.4299 0001415  70.8653 289.2489 15.06397810 90436","ARG_OF_PERICENTER":"70.8653","LAUNCH_DATE":"2021-03-24","TIME_SYSTEM":"UTC","OBJECT_ID":"2021-024AJ","MEAN_ANOMALY":"289.2489","EPOCH":"2022-11-02T13:39:47.164032","SEMIMAJOR_AXIS":"6925.355","OBJECT_TYPE":"PAYLOAD"},{"APOAPSIS":"548.335","COUNTRY_CODE":"US","TLE_LINE2":"2 48010  53.0557  67.9584 0001554 115.0273 245.0878 15.06385305 90136","ARG_OF_PERICENTER":"115.0273","LAUNCH_DATE":"2021-03-24","TIME_SYSTEM":"UTC","MEAN_ANOMALY":"245.0878","OBJECT_ID":"2021-024AK","EPOCH":"2022-11-02T10:47:17.713248","SEMIMAJOR_AXIS":"6925.394","OBJECT_TYPE":"PAYLOAD","PERIAPSIS":"546.182","RCS_SIZE":"LARGE","EPHEMERIS_TYPE":"0","MEAN_ELEMENT_THEORY":"SGP4","NORAD_CAT_ID":"48010","OBJECT_NAME":"STARLINK-2226","CLASSIFICATION_TYPE":"U","INCLINATION":"53.0557","MEAN_MOTION_DDOT":"0.0000000000000","REF_FRAME":"TEME","CENTER_NAME":"EARTH","FILE":"3642416","REV_AT_EPOCH":"9013","ELEMENT_SET_NO":"999","MEAN_MOTION_DOT":"0.00000156","RA_OF_ASC_NODE":"67.9584","PERIOD":"95.593","MEAN_MOTION":"15.06385305","DECAY_DATE":null,"SITE":"AFETR","ECCENTRICITY":"0.00015540","BSTAR":"0.00002936300000","TLE_LINE1":"1 48010U 21024AK  22306.44951057  .00000156  00000-0  29363-4 0  9999","GP_ID":"216753139"},{"NORAD_CAT_ID":"48011","OBJECT_NAME":"STARLINK-2272","RCS_SIZE":"LARGE","PERIAPSIS":"546.805","MEAN_ELEMENT_THEORY":"SGP4","EPHEMERIS_TYPE":"0","CENTER_NAME":"EARTH","REF_FRAME":"TEME","INCLINATION":"53.0598","MEAN_MOTION_DDOT":"0.0000000000000","CLASSIFICATION_TYPE":"U","TLE_LINE2":"2 48011  53.0598  48.1598 0000620 358.3281   1.7705 15.06393099 90463","ARG_OF_PERICENTER":"358.3281","TIME_SYSTEM":"UTC","LAUNCH_DATE":"2021-03-24","COUNTRY_CODE":"US","APOAPSIS":"547.664","SEMIMAJOR_AXIS":"6925.370","OBJECT_TYPE":"PAYLOAD","OBJECT_ID":"2021-024AL","MEAN_ANOMALY":"1.7705","EPOCH":"2022-11-02T09:44:53.752416","DECAY_DATE":null,"MEAN_MOTION":"15.06393099","PERIOD":"95.593","GP_ID":"216753382","SITE":"AFETR","TLE_LINE1":"1 48011U 21024AL  22306.40617769  .00003374  00000-0  24531-3 0  9991","BSTAR":"0.00024531000000","ECCENTRICITY":"0.00006200","FILE":"3642416","RA_OF_ASC_NODE":"48.1598","MEAN_MOTION_DOT":"0.00003374","REV_AT_EPOCH":"9046","ELEMENT_SET_NO":"999"},{"SITE":"AFETR","TLE_LINE1":"1 48012U 21024AM  22306.91667824  .00094065  00000-0  15264-2 0  9994","ECCENTRICITY":"0.00035770","BSTAR":"0.00152640000000","GP_ID":"216788497","MEAN_MOTION":"15.51989926","PERIOD":"92.784","DECAY_DATE":null,"REV_AT_EPOCH":"130","ELEMENT_SET_NO":"999","RA_OF_ASC_NODE":"311.4982","MEAN_MOTION_DOT":"0.00094065","FILE":"3643025","MEAN_MOTION_DDOT":"0.0000000000000","INCLINATION":"53.0511","CLASSIFICATION_TYPE":"U","CENTER_NAME":"EARTH","REF_FRAME":"TEME","PERIAPSIS":"408.490","RCS_SIZE":"LARGE","MEAN_ELEMENT_THEORY":"SGP4","EPHEMERIS_TYPE":"0","NORAD_CAT_ID":"48012","OBJECT_NAME":"STARLINK-2216","OBJECT_ID":"2021-024AM","MEAN_ANOMALY":"237.2614","EPOCH":"2022-11-02T22:00:00.999936","SEMIMAJOR_AXIS":"6789.054","OBJECT_TYPE":"PAYLOAD","COUNTRY_CODE":"US","APOAPSIS":"413.347","ARG_OF_PERICENTER":"108.7630","TLE_LINE2":"2 48012  53.0511 311.4982 0003577 108.7630 237.2614 15.51989926  1301","LAUNCH_DATE":"2021-03-24","TIME_SYSTEM":"UTC"},{"COUNTRY_CODE":"US","APOAPSIS":"548.201","TIME_SYSTEM":"UTC","LAUNCH_DATE":"2021-03-24","TLE_LINE2":"2 48013  53.0556  33.0582 0001362  84.2796 275.8348 15.06385535 90626","ARG_OF_PERICENTER":"84.2796","EPOCH":"2022-11-02T10:17:26.735424","OBJECT_ID":"2021-024AN","MEAN_ANOMALY":"275.8348","OBJECT_TYPE":"PAYLOAD","SEMIMAJOR_AXIS":"6925.393","MEAN_ELEMENT_THEORY":"SGP4","EPHEMERIS_TYPE":"0","PERIAPSIS":"546.315","RCS_SIZE":"LARGE","OBJECT_NAME":"STARLINK-2243","NORAD_CAT_ID":"48013","MEAN_MOTION_DDOT":"0.0000000000000","INCLINATION":"53.0556","CLASSIFICATION_TYPE":"U","CENTER_NAME":"EARTH","REF_FRAME":"TEME","FILE":"3642416","ELEMENT_SET_NO":"999","REV_AT_EPOCH":"9062","MEAN_MOTION_DOT":"0.00002709","RA_OF_ASC_NODE":"33.0582","MEAN_MOTION":"15.06385535","PERIOD":"95.593","DECAY_DATE":null,"TLE_LINE1":"1 48013U 21024AN  22306.42878166  .00002709  00000-0  20078-3 0  9998","ECCENTRICITY":"0.00013620","BSTAR":"0.00020078000000","SITE":"AFETR","GP_ID":"216751887"},{"APOAPSIS":"548.635","COUNTRY_CODE":"US","TIME_SYSTEM":"UTC","LAUNCH_DATE":"2021-03-24","TLE_LINE2":"2 48014  53.0562 357.2543 0002025  43.7113 316.4036 15.06393853 91193","ARG_OF_PERICENTER":"43.7113","EPOCH":"2022-11-02T15:27:18.518976","MEAN_ANOMALY":"316.4036","OBJECT_ID":"2021-024AP","OBJECT_TYPE":"PAYLOAD","SEMIMAJOR_AXIS":"6925.367","EPHEMERIS_TYPE":"0","MEAN_ELEMENT_THEORY":"SGP4","PERIAPSIS":"545.830","RCS_SIZE":"LARGE","OBJECT_NAME":"STARLINK-2283","NORAD_CAT_ID":"48014","CLASSIFICATION_TYPE":"U","INCLINATION":"53.0562","MEAN_MOTION_DDOT":"0.0000000000000","REF_FRAME":"TEME","CENTER_NAME":"EARTH","FILE":"3643025","ELEMENT_SET_NO":"999","REV_AT_EPOCH":"9119","RA_OF_ASC_NODE":"357.2543","MEAN_MOTION_DOT":"-0.00000930","PERIOD":"95.593","MEAN_MOTION":"15.06393853","DECAY_DATE":null,"BSTAR":"-0.00004353200000","ECCENTRICITY":"0.00020250","TLE_LINE1":"1 48014U 21024AP  22306.64396434 -.00000930  00000-0 -43532-4 0  9993","SITE":"AFETR","GP_ID":"216789500"}];
